{"type": "FeatureCollection", "features": [ {"type": "Feature", "properties": {"norad_id": 66909, "name": "SILVERSAT", "group": "last-30-days", "lat": 26.10528808526138, "lon": -131.28620731410555, "alt_km": 405.62292474669266, "timestamp": "2025-12-26T23:26:40.922581+00:00", "meta": {"OBJECT_NAME": "SILVERSAT", "OBJECT_ID": "1998-067XV", "EPOCH": "2025-12-26T12:00:46.911744", "MEAN_MOTION": 15.53512588, "ECCENTRICITY": 0.0003773, "INCLINATION": 51.6312, "RA_OF_ASC_NODE": 73.9315, "ARG_OF_PERICENTER": 313.4073, "MEAN_ANOMALY": 46.6603, "EPHEMERIS_TYPE": 0, "CLASSIFICATION_TYPE": "U", "NORAD_CAT_ID": 66909, "ELEMENT_SET_NO": 999, "REV_AT_EPOCH": 375, "BSTAR": 0.0010737, "MEAN_MOTION_DOT": 0.00069652, "MEAN_MOTION_DDOT": 0}, "tle": {"line1": "1 66909U 98067XV  25360.50054296  .00069652  00000+0  10737-2 0  9994", "line2": "2 66909  51.6312  73.9315 0003773 313.4073  46.6603 15.53512588  3752"}}, "geometry": {"type": "Point", "coordinates": [-131.28620731410555, 26.10528808526138]}}, {"type": "Feature", "properties": {"norad_id": 66910, "name": "1998-067XW", "group": "last-30-days", "lat": 19.734904892788695, "lon": -124.97489356400065, "alt_km": 406.0780228117492, "timestamp": "2025-12-26T23:26:40.922591+00:00", "meta": {"OBJECT_NAME": "1998-067XW", "OBJECT_ID": "1998-067XW", "EPOCH": "2025-12-26T15:03:47.086848", "MEAN_MOTION": 15.53433211, "ECCENTRICITY": 0.0003702, "INCLINATION": 51.6299, "RA_OF_ASC_NODE": 73.2784, "ARG_OF_PERICENTER": 284.4746, "MEAN_ANOMALY": 75.5833, "EPHEMERIS_TYPE": 0, "CLASSIFICATION_TYPE": "U", "NORAD_CAT_ID": 66910, "ELEMENT_SET_NO": 999, "REV_AT_EPOCH": 377, "BSTAR": 0.0010495, "MEAN_MOTION_DOT": 0.00067854, "MEAN_MOTION_DDOT": 0}, "tle": {"line1": "1 66910U 98067XW  25360.62762832  .00067854  00000+0  10495-2 0  9994", "line2": "2 66910  51.6299  73.2784 0003702 284.4746  75.5833 15.53433211  3770"}}, "geometry": {"type": "Point", "coordinates": [-124.97489356400065, 19.734904892788695]}}, {"type": "Feature", "properties": {"norad_id": 66911, "name": "1998-067XX", "group": "last-30-days", "lat": 0.36772345883303986, "lon": -108.80473556962764, "alt_km": 406.62731830193115, "timestamp": "2025-12-26T23:26:40.922601+00:00", "meta": {"OBJECT_NAME": "1998-067XX", "OBJECT_ID": "1998-067XX", "EPOCH": "2025-12-26T11:52:19.081056", "MEAN_MOTION": 15.5396914, "ECCENTRICITY": 0.0003493, "INCLINATION": 51.6301, "RA_OF_ASC_NODE": 73.8915, "ARG_OF_PERICENTER": 292.742, "MEAN_ANOMALY": 67.3201, "EPHEMERIS_TYPE": 0, "CLASSIFICATION_TYPE": "U", "NORAD_CAT_ID": 66911, "ELEMENT_SET_NO": 999, "REV_AT_EPOCH": 374, "BSTAR": 0.0011709, "MEAN_MOTION_DOT": 0.00077346, "MEAN_MOTION_DDOT": 0}, "tle": {"line1": "1 66911U 98067XX  25360.49466529  .00077346  00000+0  11709-2 0  9990", "line2": "2 66911  51.6301  73.8915 0003493 292.7420  67.3201 15.53969140  3745"}}, "geometry": {"type": "Point", "coordinates": [-108.80473556962764, 0.36772345883303986]}}, {"type": "Feature", "properties": {"norad_id": 66912, "name": "1998-067XY", "group": "last-30-days", "lat": 50.99036246742864, "lon": 173.69028059986584, "alt_km": 404.6460543350686, "timestamp": "2025-12-26T23:26:40.922609+00:00", "meta": {"OBJECT_NAME": "1998-067XY", "OBJECT_ID": "1998-067XY", "EPOCH": "2025-12-26T12:12:45.084960", "MEAN_MOTION": 15.52489248, "ECCENTRICITY": 0.0003823, "INCLINATION": 51.6314, "RA_OF_ASC_NODE": 73.9869, "ARG_OF_PERICENTER": 301.1826, "MEAN_ANOMALY": 58.8789, "EPHEMERIS_TYPE": 0, "CLASSIFICATION_TYPE": "U", "NORAD_CAT_ID": 66912, "ELEMENT_SET_NO": 999, "REV_AT_EPOCH": 374, "BSTAR": 0.00078444, "MEAN_MOTION_DOT": 0.00048771, "MEAN_MOTION_DDOT": 0}, "tle": {"line1": "1 66912U 98067XY  25360.50885515  .00048771  00000+0  78444-3 0  9993", "line2": "2 66912  51.6314  73.9869 0003823 301.1826  58.8789 15.52489248  3742"}}, "geometry": {"type": "Point", "coordinates": [173.69028059986584, 50.99036246742864]}}, {"type": "Feature", "properties": {"norad_id": 66913, "name": "2025-284A", "group": "last-30-days", "lat": 52.500979743560194, "lon": -80.83454875080996, "alt_km": 539.2087926070726, "timestamp": "2025-12-26T23:26:40.922618+00:00", "meta": {"OBJECT_NAME": "2025-284A", "OBJECT_ID": "2025-284A", "EPOCH": "2025-12-23T02:34:46.438752", "MEAN_MOTION": 15.08893564, "ECCENTRICITY": 0.0013475, "INCLINATION": 80.4035, "RA_OF_ASC_NODE": 116.7336, "ARG_OF_PERICENTER": 259.6514, "MEAN_ANOMALY": 100.3189, "EPHEMERIS_TYPE": 0, "CLASSIFICATION_TYPE": "U", "NORAD_CAT_ID": 66913, "ELEMENT_SET_NO": 999, "REV_AT_EPOCH": 269, "BSTAR": 0.00055263602, "MEAN_MOTION_DOT": 8.748e-05, "MEAN_MOTION_DDOT": 0}, "tle": {"line1": "1 66913U 25284A   25357.10748193  .00008748  00000+0  55264-3 0  9992", "line2": "2 66913  80.4035 116.7336 0013475 259.6514 100.3189 15.08893564  2694"}}, "geometry": {"type": "Point", "coordinates": [-80.83454875080996, 52.500979743560194]}}, {"type": "Feature", "properties": {"norad_id": 66914, "name": "2025-284B", "group": "last-30-days", "lat": 66.00450089062612, "lon": -90.61877482356655, "alt_km": 501.69809641348274, "timestamp": "2025-12-26T23:26:40.922629+00:00", "meta": {"OBJECT_NAME": "2025-284B", "OBJECT_ID": "2025-284B", "EPOCH": "2025-12-16T06:51:11.417184", "MEAN_MOTION": 15.18985981, "ECCENTRICITY": 0.00081793, "INCLINATION": 80.4045, "RA_OF_ASC_NODE": 125.2713, "ARG_OF_PERICENTER": 234.9626, "MEAN_ANOMALY": 125.0834, "EPHEMERIS_TYPE": 0, "CLASSIFICATION_TYPE": "U", "NORAD_CAT_ID": 66914, "ELEMENT_SET_NO": 999, "REV_AT_EPOCH": 166, "BSTAR": 0.00038444995, "MEAN_MOTION_DOT": 8.068e-05, "MEAN_MOTION_DDOT": 0}, "tle": {"line1": "1 66914U 25284B   25350.28554881  .00008068  00000+0  38445-3 0  9991", "line2": "2 66914  80.4045 125.2713 0008179 234.9626 125.0834 15.18985981  1668"}}, "geometry": {"type": "Point", "coordinates": [-90.61877482356655, 66.00450089062612]}}, {"type": "Feature", "properties": {"norad_id": 66915, "name": "HULIANWANG DIGUI-105", "group": "last-30-days", "lat": 1.7729083734023807, "lon": -122.18448090532983, "alt_km": 891.0143586299446, "timestamp": "2025-12-26T23:26:40.922638+00:00", "meta": {"OBJECT_NAME": "HULIANWANG DIGUI-105", "OBJECT_ID": "2025-285A", "EPOCH": "2025-12-26T17:28:13.886400", "MEAN_MOTION": 14.02426342, "ECCENTRICITY": 0.00081, "INCLINATION": 50.0059, "RA_OF_ASC_NODE": 60.3162, "ARG_OF_PERICENTER": 331.4786, "MEAN_ANOMALY": 28.5674, "EPHEMERIS_TYPE": 0, "CLASSIFICATION_TYPE": "U", "NORAD_CAT_ID": 66915, "ELEMENT_SET_NO": 999, "REV_AT_EPOCH": 287, "BSTAR": 0.00012714, "MEAN_MOTION_DOT": 4.6e-07, "MEAN_MOTION_DDOT": 0}, "tle": {"line1": "1 66915U 25285A   25360.72793850  .00000046  00000+0  12714-3 0  9993", "line2": "2 66915  50.0059  60.3162 0008100 331.4786  28.5674 14.02426342  2874"}}, "geometry": {"type": "Point", "coordinates": [-122.18448090532983, 1.7729083734023807]}}, {"type": "Feature", "properties": {"norad_id": 66916, "name": "HULIANWANG DIGUI-106", "group": "last-30-days", "lat": -9.288611665988613, "lon": -112.82903344424355, "alt_km": 890.0306458184241, "timestamp": "2025-12-26T23:26:40.922648+00:00", "meta": {"OBJECT_NAME": "HULIANWANG DIGUI-106", "OBJECT_ID": "2025-285B", "EPOCH": "2025-12-26T17:24:07.490880", "MEAN_MOTION": 14.02526755, "ECCENTRICITY": 0.0006728, "INCLINATION": 50.0066, "RA_OF_ASC_NODE": 60.3034, "ARG_OF_PERICENTER": 324.0444, "MEAN_ANOMALY": 36.0006, "EPHEMERIS_TYPE": 0, "CLASSIFICATION_TYPE": "U", "NORAD_CAT_ID": 66916, "ELEMENT_SET_NO": 999, "REV_AT_EPOCH": 287, "BSTAR": 0.00012472, "MEAN_MOTION_DOT": 4.2e-07, "MEAN_MOTION_DDOT": 0}, "tle": {"line1": "1 66916U 25285B   25360.72508670  .00000042  00000+0  12472-3 0  9995", "line2": "2 66916  50.0066  60.3034 0006728 324.0444  36.0006 14.02526755  2876"}}, "geometry": {"type": "Point", "coordinates": [-112.82903344424355, -9.288611665988613]}}, {"type": "Feature", "properties": {"norad_id": 66917, "name": "HULIANWANG DIGUI-107", "group": "last-30-days", "lat": -16.15122742775166, "lon": -106.6741691672654, "alt_km": 890.5367926267209, "timestamp": "2025-12-26T23:26:40.922657+00:00", "meta": {"OBJECT_NAME": "HULIANWANG DIGUI-107", "OBJECT_ID": "2025-285C", "EPOCH": "2025-12-26T17:21:33.738624", "MEAN_MOTION": 14.02681934, "ECCENTRICITY": 0.0007379, "INCLINATION": 50.0032, "RA_OF_ASC_NODE": 60.2855, "ARG_OF_PERICENTER": 333.2229, "MEAN_ANOMALY": 26.8293, "EPHEMERIS_TYPE": 0, "CLASSIFICATION_TYPE": "U", "NORAD_CAT_ID": 66917, "ELEMENT_SET_NO": 999, "REV_AT_EPOCH": 287, "BSTAR": 0.00011284, "MEAN_MOTION_DOT": 2.4e-07, "MEAN_MOTION_DDOT": 0}, "tle": {"line1": "1 66917U 25285C   25360.72330716  .00000024  00000+0  11284-3 0  9990", "line2": "2 66917  50.0032  60.2855 0007379 333.2229  26.8293 14.02681934  2872"}}, "geometry": {"type": "Point", "coordinates": [-106.6741691672654, -16.15122742775166]}}, {"type": "Feature", "properties": {"norad_id": 66918, "name": "HULIANWANG DIGUI-108", "group": "last-30-days", "lat": -18.372313443181937, "lon": -104.55711760475101, "alt_km": 889.3816207842974, "timestamp": "2025-12-26T23:26:40.922666+00:00", "meta": {"OBJECT_NAME": "HULIANWANG DIGUI-108", "OBJECT_ID": "2025-285D", "EPOCH": "2025-12-26T17:20:44.547648", "MEAN_MOTION": 14.02825316, "ECCENTRICITY": 0.0006684, "INCLINATION": 50.0053, "RA_OF_ASC_NODE": 60.2877, "ARG_OF_PERICENTER": 328.2263, "MEAN_ANOMALY": 31.8237, "EPHEMERIS_TYPE": 0, "CLASSIFICATION_TYPE": "U", "NORAD_CAT_ID": 66918, "ELEMENT_SET_NO": 999, "REV_AT_EPOCH": 287, "BSTAR": 0.00012874, "MEAN_MOTION_DOT": 4.9e-07, "MEAN_MOTION_DDOT": 0}, "tle": {"line1": "1 66918U 25285D   25360.72273782  .00000049  00000+0  12874-3 0  9993", "line2": "2 66918  50.0053  60.2877 0006684 328.2263  31.8237 14.02825316  2878"}}, "geometry": {"type": "Point", "coordinates": [-104.55711760475101, -18.372313443181937]}}]}